STARLINK-35658          
1 66126U 25237N   25315.25002315 -.01929556  00000+0 -29410-1 0  9999
2 66126  53.1593 236.3290 0000921  99.0851 287.6033 15.57340502  4418
STARLINK-35629          
1 66127U 25237P   25315.25002315 -.01936494  00000+0 -29527-1 0  9998
2 66127  53.1592 236.3260 0000757  97.0372 291.5678 15.57344626  4418
STARLINK-35612          
1 66128U 25237Q   25315.25002315 -.01927525  00000+0 -29376-1 0  9996
2 66128  53.1591 236.3213 0000878  96.9423 293.5798 15.57339510  4416
STARLINK-35632          
1 66129U 25237R   25315.25002315 -.01927784  00000+0 -29381-1 0  9990
2 66129  53.1592 236.3171 0000937  99.2298 293.2100 15.57338819  4418
STARLINK-35637          
1 66130U 25237S   25315.25002315 -.01943478  00000+0 -29643-1 0  9991
2 66130  53.1590 236.3128 0000916  92.3172 302.0372 15.57347412  4411
STARLINK-35630          
1 66131U 25237T   25315.25002315 -.01928492  00000+0 -29391-1 0  9991
2 66131  53.1591 236.3094 0000865  96.0939 300.1765 15.57341483  4417
STARLINK-34412          
1 66132U 25237U   25315.25002315 -.01928471  00000+0 -29391-1 0  9999
2 66132  53.1592 236.3055 0000845  92.0742 306.1153 15.57340614  4324
STARLINK-35520          
1 66133U 25237V   25315.25002315 -.01927000  00000+0 -29366-1 0  9999
2 66133  53.1595 236.3012 0000942  95.5267 304.5796 15.57339460  4411
STARLINK-35525          
1 66134U 25237W   25315.25002315 -.01928985  00000+0 -29400-1 0  9992
2 66134  53.1593 236.2979 0000749  93.7950 308.2274 15.57341521  4418
STARLINK-34852          
1 66135U 25237X   25315.25002315 -.01917632  00000+0 -29210-1 0  9999
2 66135  53.1591 236.2930 0000912  92.2648 311.6758 15.57334129  4370
STARLINK-35592          
1 66136U 25237Y   25315.25002315 -.01923855  00000+0 -29315-1 0  9990
2 66136  53.1592 236.2892 0000817  95.4603 310.3970 15.57337558  4415
STARLINK-35576          
1 66137U 25237Z   25315.25002315 -.01922623  00000+0 -29295-1 0  9990
2 66137  53.1592 236.2847 0000876  91.9804 315.7969 15.57335553  4415
