CCSDS_OMM_VERS = 2.0
CREATION_DATE  = 
ORIGINATOR     = 

OBJECT_NAME    = STARLINK-35658
OBJECT_ID      = 2025-237N
CENTER_NAME    = EARTH
REF_FRAME      = TEME
TIME_SYSTEM    = UTC
MEAN_ELEMENT_THEORY = SGP/SGP4

EPOCH          = 2025-11-11T06:00:02.000160
MEAN_MOTION    = 15.57340502
ECCENTRICITY   = .00009217
INCLINATION    = 53.1593
RA_OF_ASC_NODE = 236.3290
ARG_OF_PERICENTER = 99.0851
MEAN_ANOMALY   = 287.6033

EPHEMERIS_TYPE = 0
CLASSIFICATION_TYPE = U
NORAD_CAT_ID   = 66126
ELEMENT_SET_NO = 999
REV_AT_EPOCH   = 441
BSTAR          = -.29409544E-1
MEAN_MOTION_DOT = -.1929556E-1
MEAN_MOTION_DDOT = 0

CCSDS_OMM_VERS = 2.0
CREATION_DATE  = 
ORIGINATOR     = 

OBJECT_NAME    = STARLINK-35629
OBJECT_ID      = 2025-237P
CENTER_NAME    = EARTH
REF_FRAME      = TEME
TIME_SYSTEM    = UTC
MEAN_ELEMENT_THEORY = SGP/SGP4

EPOCH          = 2025-11-11T06:00:02.000160
MEAN_MOTION    = 15.57344626
ECCENTRICITY   = .00007573
INCLINATION    = 53.1592
RA_OF_ASC_NODE = 236.3260
ARG_OF_PERICENTER = 97.0372
MEAN_ANOMALY   = 291.5678

EPHEMERIS_TYPE = 0
CLASSIFICATION_TYPE = U
NORAD_CAT_ID   = 66127
ELEMENT_SET_NO = 999
REV_AT_EPOCH   = 441
BSTAR          = -.29526973E-1
MEAN_MOTION_DOT = -.1936494E-1
MEAN_MOTION_DDOT = 0

CCSDS_OMM_VERS = 2.0
CREATION_DATE  = 
ORIGINATOR     = 

OBJECT_NAME    = STARLINK-35612
OBJECT_ID      = 2025-237Q
CENTER_NAME    = EARTH
REF_FRAME      = TEME
TIME_SYSTEM    = UTC
MEAN_ELEMENT_THEORY = SGP/SGP4

EPOCH          = 2025-11-11T06:00:02.000160
MEAN_MOTION    = 15.57339510
ECCENTRICITY   = .0000878
INCLINATION    = 53.1591
RA_OF_ASC_NODE = 236.3213
ARG_OF_PERICENTER = 96.9423
MEAN_ANOMALY   = 293.5798

EPHEMERIS_TYPE = 0
CLASSIFICATION_TYPE = U
NORAD_CAT_ID   = 66128
ELEMENT_SET_NO = 999
REV_AT_EPOCH   = 441
BSTAR          = -.29375943E-1
MEAN_MOTION_DOT = -.1927525E-1
MEAN_MOTION_DDOT = 0

CCSDS_OMM_VERS = 2.0
CREATION_DATE  = 
ORIGINATOR     = 

OBJECT_NAME    = STARLINK-35632
OBJECT_ID      = 2025-237R
CENTER_NAME    = EARTH
REF_FRAME      = TEME
TIME_SYSTEM    = UTC
MEAN_ELEMENT_THEORY = SGP/SGP4

EPOCH          = 2025-11-11T06:00:02.000160
MEAN_MOTION    = 15.57338819
ECCENTRICITY   = .00009372
INCLINATION    = 53.1592
RA_OF_ASC_NODE = 236.3171
ARG_OF_PERICENTER = 99.2298
MEAN_ANOMALY   = 293.2100

EPHEMERIS_TYPE = 0
CLASSIFICATION_TYPE = U
NORAD_CAT_ID   = 66129
ELEMENT_SET_NO = 999
REV_AT_EPOCH   = 441
BSTAR          = -.29380553E-1
MEAN_MOTION_DOT = -.1927784E-1
MEAN_MOTION_DDOT = 0

CCSDS_OMM_VERS = 2.0
CREATION_DATE  = 
ORIGINATOR     = 

OBJECT_NAME    = STARLINK-35637
OBJECT_ID      = 2025-237S
CENTER_NAME    = EARTH
REF_FRAME      = TEME
TIME_SYSTEM    = UTC
MEAN_ELEMENT_THEORY = SGP/SGP4

EPOCH          = 2025-11-11T06:00:02.000160
MEAN_MOTION    = 15.57347412
ECCENTRICITY   = .00009166
INCLINATION    = 53.1590
RA_OF_ASC_NODE = 236.3128
ARG_OF_PERICENTER = 92.3172
MEAN_ANOMALY   = 302.0372

EPHEMERIS_TYPE = 0
CLASSIFICATION_TYPE = U
NORAD_CAT_ID   = 66130
ELEMENT_SET_NO = 999
REV_AT_EPOCH   = 441
BSTAR          = -.29643257E-1
MEAN_MOTION_DOT = -.1943478E-1
MEAN_MOTION_DDOT = 0

CCSDS_OMM_VERS = 2.0
CREATION_DATE  = 
ORIGINATOR     = 

OBJECT_NAME    = STARLINK-35630
OBJECT_ID      = 2025-237T
CENTER_NAME    = EARTH
REF_FRAME      = TEME
TIME_SYSTEM    = UTC
MEAN_ELEMENT_THEORY = SGP/SGP4

EPOCH          = 2025-11-11T06:00:02.000160
MEAN_MOTION    = 15.57341483
ECCENTRICITY   = .00008655
INCLINATION    = 53.1591
RA_OF_ASC_NODE = 236.3094
ARG_OF_PERICENTER = 96.0939
MEAN_ANOMALY   = 300.1765

EPHEMERIS_TYPE = 0
CLASSIFICATION_TYPE = U
NORAD_CAT_ID   = 66131
ELEMENT_SET_NO = 999
REV_AT_EPOCH   = 441
BSTAR          = -.29390624E-1
MEAN_MOTION_DOT = -.1928492E-1
MEAN_MOTION_DDOT = 0

CCSDS_OMM_VERS = 2.0
CREATION_DATE  = 
ORIGINATOR     = 

OBJECT_NAME    = STARLINK-34412
OBJECT_ID      = 2025-237U
CENTER_NAME    = EARTH
REF_FRAME      = TEME
TIME_SYSTEM    = UTC
MEAN_ELEMENT_THEORY = SGP/SGP4

EPOCH          = 2025-11-11T06:00:02.000160
MEAN_MOTION    = 15.57340614
ECCENTRICITY   = .00008457
INCLINATION    = 53.1592
RA_OF_ASC_NODE = 236.3055
ARG_OF_PERICENTER = 92.0742
MEAN_ANOMALY   = 306.1153

EPHEMERIS_TYPE = 0
CLASSIFICATION_TYPE = U
NORAD_CAT_ID   = 66132
ELEMENT_SET_NO = 999
REV_AT_EPOCH   = 432
BSTAR          = -.29391449E-1
MEAN_MOTION_DOT = -.1928471E-1
MEAN_MOTION_DDOT = 0

CCSDS_OMM_VERS = 2.0
CREATION_DATE  = 
ORIGINATOR     = 

OBJECT_NAME    = STARLINK-35520
OBJECT_ID      = 2025-237V
CENTER_NAME    = EARTH
REF_FRAME      = TEME
TIME_SYSTEM    = UTC
MEAN_ELEMENT_THEORY = SGP/SGP4

EPOCH          = 2025-11-11T06:00:02.000160
MEAN_MOTION    = 15.57339460
ECCENTRICITY   = .00009428
INCLINATION    = 53.1595
RA_OF_ASC_NODE = 236.3012
ARG_OF_PERICENTER = 95.5267
MEAN_ANOMALY   = 304.5796

EPHEMERIS_TYPE = 0
CLASSIFICATION_TYPE = U
NORAD_CAT_ID   = 66133
ELEMENT_SET_NO = 999
REV_AT_EPOCH   = 441
BSTAR          = -.29366207E-1
MEAN_MOTION_DOT = -.1927E-1
MEAN_MOTION_DDOT = 0

CCSDS_OMM_VERS = 2.0
CREATION_DATE  = 
ORIGINATOR     = 

OBJECT_NAME    = STARLINK-35525
OBJECT_ID      = 2025-237W
CENTER_NAME    = EARTH
REF_FRAME      = TEME
TIME_SYSTEM    = UTC
MEAN_ELEMENT_THEORY = SGP/SGP4

EPOCH          = 2025-11-11T06:00:02.000160
MEAN_MOTION    = 15.57341521
ECCENTRICITY   = .00007495
INCLINATION    = 53.1593
RA_OF_ASC_NODE = 236.2979
ARG_OF_PERICENTER = 93.7950
MEAN_ANOMALY   = 308.2274

EPHEMERIS_TYPE = 0
CLASSIFICATION_TYPE = U
NORAD_CAT_ID   = 66134
ELEMENT_SET_NO = 999
REV_AT_EPOCH   = 441
BSTAR          = -.29400392E-1
MEAN_MOTION_DOT = -.1928985E-1
MEAN_MOTION_DDOT = 0

CCSDS_OMM_VERS = 2.0
CREATION_DATE  = 
ORIGINATOR     = 

OBJECT_NAME    = STARLINK-34852
OBJECT_ID      = 2025-237X
CENTER_NAME    = EARTH
REF_FRAME      = TEME
TIME_SYSTEM    = UTC
MEAN_ELEMENT_THEORY = SGP/SGP4

EPOCH          = 2025-11-11T06:00:02.000160
MEAN_MOTION    = 15.57334129
ECCENTRICITY   = .00009125
INCLINATION    = 53.1591
RA_OF_ASC_NODE = 236.2930
ARG_OF_PERICENTER = 92.2648
MEAN_ANOMALY   = 311.6758

EPHEMERIS_TYPE = 0
CLASSIFICATION_TYPE = U
NORAD_CAT_ID   = 66135
ELEMENT_SET_NO = 999
REV_AT_EPOCH   = 437
BSTAR          = -.29210329E-1
MEAN_MOTION_DOT = -.1917632E-1
MEAN_MOTION_DDOT = 0

CCSDS_OMM_VERS = 2.0
CREATION_DATE  = 
ORIGINATOR     = 

OBJECT_NAME    = STARLINK-35592
OBJECT_ID      = 2025-237Y
CENTER_NAME    = EARTH
REF_FRAME      = TEME
TIME_SYSTEM    = UTC
MEAN_ELEMENT_THEORY = SGP/SGP4

EPOCH          = 2025-11-11T06:00:02.000160
MEAN_MOTION    = 15.57337558
ECCENTRICITY   = .00008178
INCLINATION    = 53.1592
RA_OF_ASC_NODE = 236.2892
ARG_OF_PERICENTER = 95.4603
MEAN_ANOMALY   = 310.3970

EPHEMERIS_TYPE = 0
CLASSIFICATION_TYPE = U
NORAD_CAT_ID   = 66136
ELEMENT_SET_NO = 999
REV_AT_EPOCH   = 441
BSTAR          = -.29315232E-1
MEAN_MOTION_DOT = -.1923855E-1
MEAN_MOTION_DDOT = 0

CCSDS_OMM_VERS = 2.0
CREATION_DATE  = 
ORIGINATOR     = 

OBJECT_NAME    = STARLINK-35576
OBJECT_ID      = 2025-237Z
CENTER_NAME    = EARTH
REF_FRAME      = TEME
TIME_SYSTEM    = UTC
MEAN_ELEMENT_THEORY = SGP/SGP4

EPOCH          = 2025-11-11T06:00:02.000160
MEAN_MOTION    = 15.57335553
ECCENTRICITY   = .00008763
INCLINATION    = 53.1592
RA_OF_ASC_NODE = 236.2847
ARG_OF_PERICENTER = 91.9804
MEAN_ANOMALY   = 315.7969

EPHEMERIS_TYPE = 0
CLASSIFICATION_TYPE = U
NORAD_CAT_ID   = 66137
ELEMENT_SET_NO = 999
REV_AT_EPOCH   = 441
BSTAR          = -.2929549E-1
MEAN_MOTION_DOT = -.1922623E-1
MEAN_MOTION_DDOT = 0

